TRANSPORTER-10 OBJECT AD
1 59125U 24043AD  26068.86032889  .00011954  00000+0  36311-3 0  9997
2 59125  97.5470 207.3753 0008984 221.4908 138.5653 15.34189901112026
STARLINK-33742          
1 63366U 25063D   26068.37728166  .00037156  00000+0  12602-2 0  9996
2 63366  53.1595  53.7714 0001342  80.6769 279.4384 15.30203480 54661
